<?xml version="1.0" encoding="UTF-8"?>
<ndm xmlns:xsi="http://www.w3.org/2001/XMLSchema-instance" xsi:noNamespaceSchemaLocation="https://sanaregistry.org/r/ndmxml_unqualified/ndmxml-2.0.0-master-2.0.xsd">
<omm id="CCSDS_OMM_VERS" version="2.0">
<header><CREATION_DATE/><ORIGINATOR/></header><body><segment><metadata><OBJECT_NAME>ONEWEB-0522</OBJECT_NAME><OBJECT_ID>2022-138AD</OBJECT_ID><CENTER_NAME>EARTH</CENTER_NAME><REF_FRAME>TEME</REF_FRAME><TIME_SYSTEM>UTC</TIME_SYSTEM><MEAN_ELEMENT_THEORY>SGP4</MEAN_ELEMENT_THEORY></metadata><data><meanElements><EPOCH>2024-07-02T11:50:27.972384</EPOCH><MEAN_MOTION>13.19728397</MEAN_MOTION><ECCENTRICITY>.000202</ECCENTRICITY><INCLINATION>87.9145</INCLINATION><RA_OF_ASC_NODE>87.1774</RA_OF_ASC_NODE><ARG_OF_PERICENTER>74.3866</ARG_OF_PERICENTER><MEAN_ANOMALY>285.7490</MEAN_ANOMALY></meanElements><tleParameters><EPHEMERIS_TYPE>0</EPHEMERIS_TYPE><CLASSIFICATION_TYPE>U</CLASSIFICATION_TYPE><NORAD_CAT_ID>54140</NORAD_CAT_ID><ELEMENT_SET_NO>999</ELEMENT_SET_NO><REV_AT_EPOCH>8254</REV_AT_EPOCH><BSTAR>.48356E-4</BSTAR><MEAN_MOTION_DOT>.32E-6</MEAN_MOTION_DOT><MEAN_MOTION_DDOT>0</MEAN_MOTION_DDOT></tleParameters></data></segment></body></omm>
<omm id="CCSDS_OMM_VERS" version="2.0">
<header><CREATION_DATE/><ORIGINATOR/></header><body><segment><metadata><OBJECT_NAME>ONEWEB-0523</OBJECT_NAME><OBJECT_ID>2022-138AE</OBJECT_ID><CENTER_NAME>EARTH</CENTER_NAME><REF_FRAME>TEME</REF_FRAME><TIME_SYSTEM>UTC</TIME_SYSTEM><MEAN_ELEMENT_THEORY>SGP4</MEAN_ELEMENT_THEORY></metadata><data><meanElements><EPOCH>2024-07-02T13:38:10.967136</EPOCH><MEAN_MOTION>13.20770854</MEAN_MOTION><ECCENTRICITY>.0001076</ECCENTRICITY><INCLINATION>87.9203</INCLINATION><RA_OF_ASC_NODE>56.6173</RA_OF_ASC_NODE><ARG_OF_PERICENTER>100.4550</ARG_OF_PERICENTER><MEAN_ANOMALY>259.6704</MEAN_ANOMALY></meanElements><tleParameters><EPHEMERIS_TYPE>0</EPHEMERIS_TYPE><CLASSIFICATION_TYPE>U</CLASSIFICATION_TYPE><NORAD_CAT_ID>54141</NORAD_CAT_ID><ELEMENT_SET_NO>999</ELEMENT_SET_NO><REV_AT_EPOCH>8497</REV_AT_EPOCH><BSTAR>.19357E-4</BSTAR><MEAN_MOTION_DOT>.21E-6</MEAN_MOTION_DOT><MEAN_MOTION_DDOT>0</MEAN_MOTION_DDOT></tleParameters></data></segment></body></omm>
<omm id="CCSDS_OMM_VERS" version="2.0">
<header><CREATION_DATE/><ORIGINATOR/></header><body><segment><metadata><OBJECT_NAME>ONEWEB-0524</OBJECT_NAME><OBJECT_ID>2022-138AF</OBJECT_ID><CENTER_NAME>EARTH</CENTER_NAME><REF_FRAME>TEME</REF_FRAME><TIME_SYSTEM>UTC</TIME_SYSTEM><MEAN_ELEMENT_THEORY>SGP4</MEAN_ELEMENT_THEORY></metadata><data><meanElements><EPOCH>2024-07-02T13:22:15.763296</EPOCH><MEAN_MOTION>13.20773923</MEAN_MOTION><ECCENTRICITY>.000122</ECCENTRICITY><INCLINATION>87.9203</INCLINATION><RA_OF_ASC_NODE>56.6228</RA_OF_ASC_NODE><ARG_OF_PERICENTER>44.2729</ARG_OF_PERICENTER><MEAN_ANOMALY>315.8502</MEAN_ANOMALY></meanElements><tleParameters><EPHEMERIS_TYPE>0</EPHEMERIS_TYPE><CLASSIFICATION_TYPE>U</CLASSIFICATION_TYPE><NORAD_CAT_ID>54142</NORAD_CAT_ID><ELEMENT_SET_NO>999</ELEMENT_SET_NO><REV_AT_EPOCH>8497</REV_AT_EPOCH><BSTAR>-.2288E-4</BSTAR><MEAN_MOTION_DOT>.4E-7</MEAN_MOTION_DOT><MEAN_MOTION_DDOT>0</MEAN_MOTION_DDOT></tleParameters></data></segment></body></omm>
<omm id="CCSDS_OMM_VERS" version="2.0">
<header><CREATION_DATE/><ORIGINATOR/></header><body><segment><metadata><OBJECT_NAME>ONEWEB-0525</OBJECT_NAME><OBJECT_ID>2022-138AG</OBJECT_ID><CENTER_NAME>EARTH</CENTER_NAME><REF_FRAME>TEME</REF_FRAME><TIME_SYSTEM>UTC</TIME_SYSTEM><MEAN_ELEMENT_THEORY>SGP4</MEAN_ELEMENT_THEORY></metadata><data><meanElements><EPOCH>2024-07-02T06:50:14.293824</EPOCH><MEAN_MOTION>13.19724238</MEAN_MOTION><ECCENTRICITY>.000228</ECCENTRICITY><INCLINATION>87.9148</INCLINATION><RA_OF_ASC_NODE>87.2282</RA_OF_ASC_NODE><ARG_OF_PERICENTER>74.5844</ARG_OF_PERICENTER><MEAN_ANOMALY>285.5541</MEAN_ANOMALY></meanElements><tleParameters><EPHEMERIS_TYPE>0</EPHEMERIS_TYPE><CLASSIFICATION_TYPE>U</CLASSIFICATION_TYPE><NORAD_CAT_ID>54143</NORAD_CAT_ID><ELEMENT_SET_NO>999</ELEMENT_SET_NO><REV_AT_EPOCH>8253</REV_AT_EPOCH><BSTAR>.16079E-3</BSTAR><MEAN_MOTION_DOT>.77E-6</MEAN_MOTION_DOT><MEAN_MOTION_DDOT>0</MEAN_MOTION_DDOT></tleParameters></data></segment></body></omm>
<omm id="CCSDS_OMM_VERS" version="2.0">
<header><CREATION_DATE/><ORIGINATOR/></header><body><segment><metadata><OBJECT_NAME>ONEWEB-0526</OBJECT_NAME><OBJECT_ID>2022-138AH</OBJECT_ID><CENTER_NAME>EARTH</CENTER_NAME><REF_FRAME>TEME</REF_FRAME><TIME_SYSTEM>UTC</TIME_SYSTEM><MEAN_ELEMENT_THEORY>SGP4</MEAN_ELEMENT_THEORY></metadata><data><meanElements><EPOCH>2024-07-02T14:54:42.546528</EPOCH><MEAN_MOTION>13.19727605</MEAN_MOTION><ECCENTRICITY>.0002026</ECCENTRICITY><INCLINATION>87.9145</INCLINATION><RA_OF_ASC_NODE>87.1560</RA_OF_ASC_NODE><ARG_OF_PERICENTER>73.9003</ARG_OF_PERICENTER><MEAN_ANOMALY>286.2353</MEAN_ANOMALY></meanElements><tleParameters><EPHEMERIS_TYPE>0</EPHEMERIS_TYPE><CLASSIFICATION_TYPE>U</CLASSIFICATION_TYPE><NORAD_CAT_ID>54144</NORAD_CAT_ID><ELEMENT_SET_NO>999</ELEMENT_SET_NO><REV_AT_EPOCH>8255</REV_AT_EPOCH><BSTAR>.11394E-3</BSTAR><MEAN_MOTION_DOT>.59E-6</MEAN_MOTION_DOT><MEAN_MOTION_DDOT>0</MEAN_MOTION_DDOT></tleParameters></data></segment></body></omm>
<omm id="CCSDS_OMM_VERS" version="2.0">
<header><CREATION_DATE/><ORIGINATOR/></header><body><segment><metadata><OBJECT_NAME>ONEWEB-0529</OBJECT_NAME><OBJECT_ID>2022-138AJ</OBJECT_ID><CENTER_NAME>EARTH</CENTER_NAME><REF_FRAME>TEME</REF_FRAME><TIME_SYSTEM>UTC</TIME_SYSTEM><MEAN_ELEMENT_THEORY>SGP4</MEAN_ELEMENT_THEORY></metadata><data><meanElements><EPOCH>2024-07-02T14:59:15.789984</EPOCH><MEAN_MOTION>13.19724999</MEAN_MOTION><ECCENTRICITY>.0002262</ECCENTRICITY><INCLINATION>87.9154</INCLINATION><RA_OF_ASC_NODE>87.1714</RA_OF_ASC_NODE><ARG_OF_PERICENTER>72.1208</ARG_OF_PERICENTER><MEAN_ANOMALY>288.0171</MEAN_ANOMALY></meanElements><tleParameters><EPHEMERIS_TYPE>0</EPHEMERIS_TYPE><CLASSIFICATION_TYPE>U</CLASSIFICATION_TYPE><NORAD_CAT_ID>54145</NORAD_CAT_ID><ELEMENT_SET_NO>999</ELEMENT_SET_NO><REV_AT_EPOCH>8257</REV_AT_EPOCH><BSTAR>.15306E-3</BSTAR><MEAN_MOTION_DOT>.74E-6</MEAN_MOTION_DOT><MEAN_MOTION_DDOT>0</MEAN_MOTION_DDOT></tleParameters></data></segment></body></omm>
<omm id="CCSDS_OMM_VERS" version="2.0">
<header><CREATION_DATE/><ORIGINATOR/></header><body><segment><metadata><OBJECT_NAME>ONEWEB-0531</OBJECT_NAME><OBJECT_ID>2022-138AK</OBJECT_ID><CENTER_NAME>EARTH</CENTER_NAME><REF_FRAME>TEME</REF_FRAME><TIME_SYSTEM>UTC</TIME_SYSTEM><MEAN_ELEMENT_THEORY>SGP4</MEAN_ELEMENT_THEORY></metadata><data><meanElements><EPOCH>2024-07-02T14:50:54.384864</EPOCH><MEAN_MOTION>13.20770434</MEAN_MOTION><ECCENTRICITY>.0000593</ECCENTRICITY><INCLINATION>87.9202</INCLINATION><RA_OF_ASC_NODE>56.6014</RA_OF_ASC_NODE><ARG_OF_PERICENTER>82.1447</ARG_OF_PERICENTER><MEAN_ANOMALY>277.9754</MEAN_ANOMALY></meanElements><tleParameters><EPHEMERIS_TYPE>0</EPHEMERIS_TYPE><CLASSIFICATION_TYPE>U</CLASSIFICATION_TYPE><NORAD_CAT_ID>54146</NORAD_CAT_ID><ELEMENT_SET_NO>999</ELEMENT_SET_NO><REV_AT_EPOCH>8498</REV_AT_EPOCH><BSTAR>-.21199E-3</BSTAR><MEAN_MOTION_DOT>-.73E-6</MEAN_MOTION_DOT><MEAN_MOTION_DDOT>0</MEAN_MOTION_DDOT></tleParameters></data></segment></body></omm>
<omm id="CCSDS_OMM_VERS" version="2.0">
<header><CREATION_DATE/><ORIGINATOR/></header><body><segment><metadata><OBJECT_NAME>ONEWEB-0535</OBJECT_NAME><OBJECT_ID>2022-138AL</OBJECT_ID><CENTER_NAME>EARTH</CENTER_NAME><REF_FRAME>TEME</REF_FRAME><TIME_SYSTEM>UTC</TIME_SYSTEM><MEAN_ELEMENT_THEORY>SGP4</MEAN_ELEMENT_THEORY></metadata><data><meanElements><EPOCH>2024-07-02T10:19:29.627328</EPOCH><MEAN_MOTION>13.19724441</MEAN_MOTION><ECCENTRICITY>.0001695</ECCENTRICITY><INCLINATION>87.9144</INCLINATION><RA_OF_ASC_NODE>87.1923</RA_OF_ASC_NODE><ARG_OF_PERICENTER>78.9101</ARG_OF_PERICENTER><MEAN_ANOMALY>281.2222</MEAN_ANOMALY></meanElements><tleParameters><EPHEMERIS_TYPE>0</EPHEMERIS_TYPE><CLASSIFICATION_TYPE>U</CLASSIFICATION_TYPE><NORAD_CAT_ID>54147</NORAD_CAT_ID><ELEMENT_SET_NO>999</ELEMENT_SET_NO><REV_AT_EPOCH>8256</REV_AT_EPOCH><BSTAR>.77008E-5</BSTAR><MEAN_MOTION_DOT>.16E-6</MEAN_MOTION_DOT><MEAN_MOTION_DDOT>0</MEAN_MOTION_DDOT></tleParameters></data></segment></body></omm>
<omm id="CCSDS_OMM_VERS" version="2.0">
<header><CREATION_DATE/><ORIGINATOR/></header><body><segment><metadata><OBJECT_NAME>ONEWEB-0536</OBJECT_NAME><OBJECT_ID>2022-138AM</OBJECT_ID><CENTER_NAME>EARTH</CENTER_NAME><REF_FRAME>TEME</REF_FRAME><TIME_SYSTEM>UTC</TIME_SYSTEM><MEAN_ELEMENT_THEORY>SGP4</MEAN_ELEMENT_THEORY></metadata><data><meanElements><EPOCH>2024-07-02T14:32:43.379232</EPOCH><MEAN_MOTION>13.20769706</MEAN_MOTION><ECCENTRICITY>.0001132</ECCENTRICITY><INCLINATION>87.9202</INCLINATION><RA_OF_ASC_NODE>56.6528</RA_OF_ASC_NODE><ARG_OF_PERICENTER>113.3153</ARG_OF_PERICENTER><MEAN_ANOMALY>246.8100</MEAN_ANOMALY></meanElements><tleParameters><EPHEMERIS_TYPE>0</EPHEMERIS_TYPE><CLASSIFICATION_TYPE>U</CLASSIFICATION_TYPE><NORAD_CAT_ID>54148</NORAD_CAT_ID><ELEMENT_SET_NO>999</ELEMENT_SET_NO><REV_AT_EPOCH>8497</REV_AT_EPOCH><BSTAR>.17373E-3</BSTAR><MEAN_MOTION_DOT>.84E-6</MEAN_MOTION_DOT><MEAN_MOTION_DDOT>0</MEAN_MOTION_DDOT></tleParameters></data></segment></body></omm>

</ndm>
